STARLINK-30494          
1 57970U 23151G   26068.36049035 -.00001272  00000+0 -35691-4 0  9993
2 57970  43.0027 192.4566 0001155 241.5536 118.5200 15.28417441137406
STARLINK-34239          
1 64728U 25144E   26068.62417513  .00034550  00000+0  11737-2 0  9991
2 64728  53.1602 181.2192 0001334  77.2019 282.9131 15.30186319 39709
